OBJECT_NAME,OBJECT_ID,EPOCH,MEAN_MOTION,ECCENTRICITY,INCLINATION,RA_OF_ASC_NODE,ARG_OF_PERICENTER,MEAN_ANOMALY,EPHEMERIS_TYPE,CLASSIFICATION_TYPE,NORAD_CAT_ID,ELEMENT_SET_NO,REV_AT_EPOCH,BSTAR,MEAN_MOTION_DOT,MEAN_MOTION_DDOT
ALOS-2,2014-029A,2026-06-13T14:56:03.283872,14.79477530,.00016144,97.9216,261.8368,89.6191,270.5206,0,U,39766,999,65105,.21378995E-3,.1546E-4,0
HODOYOSHI-4,2014-033B,2026-06-13T16:07:46.333056,14.88122149,.00226931,97.5452,349.6648,320.7023,39.2546,0,U,40011,999,64828,.19056309E-3,.1709E-4,0
DEIMOS-2,2014-033D,2026-06-13T15:11:10.267008,14.93715504,.00017568,97.5844,39.2471,50.3190,309.8185,0,U,40013,999,63719,.59023922E-4,.57E-5,0
SPOT 7,2014-034A,2026-06-13T14:53:00.527136,14.60956569,.00012101,98.0635,227.2037,88.4542,271.6797,0,U,40053,999,63661,.15315162E-3,.705E-5,0
WORLDVIEW-3 (WV-3),2014-048A,2026-06-13T14:18:31.777632,14.85016653,.0001265,97.8566,239.4786,30.5823,329.5465,0,U,40115,999,64137,.99300461E-4,.794E-5,0
GAOFEN-2,2014-049A,2026-06-13T15:54:28.306368,14.80894779,.00059881,98.0115,228.8732,240.9076,119.1537,0,U,40118,999,63871,.93041853E-4,.666E-5,0
YAOGAN-22,2014-063A,2026-06-13T09:11:42.909792,13.15530942,.00062524,100.7719,315.5932,193.8649,166.2291,0,U,40275,999,55931,.35026983E-4,-.34E-6,0
ASNARO,2014-070A,2026-06-13T14:28:19.588800,15.19394277,.00052592,97.3461,240.8145,175.8185,184.3095,0,U,40298,999,64346,.62769774E-3,.13236E-3,0
KOMPSAT-3A,2015-014A,2026-06-13T15:15:23.279904,15.53839822,.00561904,97.6880,155.7384,187.3735,172.6698,0,U,40536,999,62126,.38250312E-3,.26275E-3,0
SENTINEL-2A,2015-028A,2026-06-13T15:33:28.814688,14.30814633,.00011056,98.5688,239.5502,89.0563,271.0747,0,U,40697,999,57322,.61927352E-4,.119E-5,0
GAOFEN-8,2015-030A,2026-06-13T15:46:12.914688,15.45840889,.00084787,97.6901,357.8167,199.1139,160.9792,0,U,40701,999,61090,.54402731E-3,.26386E-3,0
YAOGAN-27,2015-040A,2026-06-13T14:34:58.524384,13.16070455,.0007583,100.1147,151.1453,219.2914,140.7650,0,U,40878,999,51719,.35883065E-4,-.29E-6,0
GAOFEN-9 01,2015-047A,2026-06-13T14:54:31.936608,14.82877695,.00281391,97.6276,200.4780,149.1228,211.1648,0,U,40894,999,57966,.12425989E-3,.963E-5,0
YAOGAN-28,2015-064A,2026-06-13T15:41:47.986368,15.27381108,.00103047,97.3066,302.9876,195.8034,164.2885,0,U,41026,999,59014,.27471852E-3,.7303E-4,0
YAOGAN-29,2015-069A,2026-06-13T16:04:02.091360,14.83082475,.00028053,98.0032,193.2968,58.7443,301.4044,0,U,41038,999,57010,.32407328E-4,.21E-5,0
KENT RIDGE 1,2015-077B,2026-06-12T17:02:56.475168,15.23106692,.00082578,14.9784,299.2877,175.1871,184.8531,0,U,41167,999,58041,.14593097E-3,.4314E-4,0
GAOFEN-4,2015-083A,2026-06-13T15:21:55.813248,1.00270624,.00043328,0.3468,83.8709,113.7567,40.5196,0,U,41194,999,3849,0,-.324E-5,0
JASON-3,2016-002A,2026-06-13T14:02:37.584672,12.87627985,.00085541,66.0399,133.4078,272.9635,87.0405,0,U,41240,999,48678,.2708098E-5,-.62E-6,0
SENTINEL-3A,2016-011A,2026-06-13T15:21:30.551616,14.26739100,.00013834,98.6249,232.0744,102.9517,257.1818,0,U,41335,999,53755,.60520771E-4,.103E-5,0
ZIYUAN 3-02 (ZY 3-02),2016-033A,2026-06-13T15:19:01.888320,15.21449291,.00113006,97.3842,240.4804,304.0075,56.0087,0,U,41556,999,55744,.24289002E-3,.5397E-4,0
