{"fetched_at":"2026-06-14T03:48:42Z","count":16735,"tles":[{"name":"JASON-3","line1":"1 41240U 16002A   26164.58515723 -.00000062  00000+0  27081-5 0  9996","line2":"2 41240  66.0399 133.4078 0008554 272.9635  87.0405 12.87627985486780","category":"Other"},{"name":"DEIMOS-2","line1":"1 40013U 14033D   26164.63275772  .00000570  00000+0  59024-4 0  9992","line2":"2 40013  97.5844  39.2471 0001756  50.3190 309.8185 14.93715504637199","category":"Other"},{"name":"ASNARO","line1":"1 40298U 14070A   26164.60300450  .00013236  00000+0  62770-3 0  9991","line2":"2 40298  97.3461 240.8145 0005259 175.8185 184.3095 15.19394277643466","category":"Other"},{"name":"GAOFEN-8","line1":"1 40701U 15030A   26164.65709392  .00026386  00000+0  54403-3 0  9994","line2":"2 40701  97.6901 357.8167 0008478 199.1139 160.9792 15.45840889610905","category":"Other"},{"name":"SENTINEL-2A","line1":"1 40697U 15028A   26164.64825017  .00000119  00000+0  61927-4 0  9993","line2":"2 40697  98.5688 239.5502 0001105  89.0563 271.0747 14.30814633573226","category":"Other"},{"name":"WORLDVIEW-3 (WV-3)","line1":"1 40115U 14048A   26164.59620113  .00000794  00000+0  99300-4 0  9998","line2":"2 40115  97.8566 239.4786 0001265  30.5823 329.5465 14.85016653641372","category":"Other"},{"name":"ZIYUAN 3-02 (ZY 3-02)","line1":"1 41556U 16033A   26164.63821630  .00005397  00000+0  24289-3 0  9993","line2":"2 41556  97.3842 240.4804 0011300 304.0075  56.0087 15.21449291557441","category":"Other"},{"name":"ALOS-2","line1":"1 39766U 14029A   26164.62226023  .00001546  00000+0  21379-3 0  9999","line2":"2 39766  97.9216 261.8368 0001614  89.6191 270.5206 14.79477530651053","category":"Other"},{"name":"HODOYOSHI-4","line1":"1 40011U 14033B   26164.67206404  .00001709  00000+0  19056-3 0  9995","line2":"2 40011  97.5452 349.6648 0022693 320.7023  39.2546 14.88122149648286","category":"Other"},{"name":"KOMPSAT-3A","line1":"1 40536U 15014A   26164.63568611  .00026275  00000+0  38250-3 0  9996","line2":"2 40536  97.6880 155.7384 0056190 187.3735 172.6698 15.53839822621268","category":"Other"},{"name":"GAOFEN-2","line1":"1 40118U 14049A   26164.66282762  .00000666  00000+0  93042-4 0  9999","line2":"2 40118  98.0115 228.8732 0005988 240.9076 119.1537 14.80894779638719","category":"Other"},{"name":"GAOFEN-4","line1":"1 41194U 15083A   26164.64022932 -.00000324  00000+0  00000+0 0  9991","line2":"2 41194   0.3468  83.8709 0004332 113.7567  40.5196  1.00270624 38490","category":"Other"},{"name":"GAOFEN-9 01","line1":"1 40894U 15047A   26164.62120297  .00000963  00000+0  12426-3 0  9995","line2":"2 40894  97.6276 200.4780 0028139 149.1228 211.1648 14.82877695579668","category":"Other"},{"name":"YAOGAN-28","line1":"1 41026U 15064A   26164.65402762  .00007303  00000+0  27472-3 0  9997","line2":"2 41026  97.3066 302.9876 0010304 195.8034 164.2885 15.27381108590148","category":"Other"},{"name":"KENT RIDGE 1","line1":"1 41167U 15077B   26163.71037587  .00004314  00000+0  14593-3 0  9991","line2":"2 41167  14.9784 299.2877 0008257 175.1871 184.8531 15.23106692580413","category":"Other"},{"name":"YAOGAN-22","line1":"1 40275U 14063A   26164.38313553 -.00000034  00000+0  35027-4 0  9990","line2":"2 40275 100.7719 315.5932 0006252 193.8649 166.2291 13.15530942559311","category":"Other"},{"name":"YAOGAN-29","line1":"1 41038U 15069A   26164.66946865  .00000210  00000+0  32407-4 0  9998","line2":"2 41038  98.0032 193.2968 0002805  58.7443 301.4044 14.83082475570105","category":"Other"},{"name":"YAOGAN-27","line1":"1 40878U 15040A   26164.60762181 -.00000029  00000+0  35883-4 0  9999","line2":"2 40878 100.1147 151.1453 0007583 219.2914 140.7650 13.16070455517192","category":"Other"},{"name":"SENTINEL-3A","line1":"1 41335U 16011A   26164.63993694  .00000103  00000+0  60521-4 0  9994","line2":"2 41335  98.6249 232.0744 0001383 102.9517 257.1818 14.26739100537558","category":"Other"},{"name":"SPOT 7","line1":"1 40053U 14034A   26164.62014499  .00000705  00000+0  15315-3 0  9997","line2":"2 40053  98.0635 227.2037 0001210  88.4542 271.6797 14.60956569636615","category":"Other"}]}